GLOBALSTAR M094         
1 39074U 13005C   25248.86532607 -.00000068  00000+0  19894-3 0  9998
2 39074  51.9962 296.4792 0000666  98.1186 261.9756 12.62269614582568
GLOBALSTAR M096         
1 39075U 13005D   25248.72008338 -.00000080  00000+0  13163-3 0  9990
2 39075  52.0103 345.4968 0000835  93.4876 266.6087 12.62266464581467
GLOBALSTAR M078         
1 39076U 13005E   25248.77313181 -.00000096  00000+0  46079-4 0  9991
2 39076  51.9868  69.7347 0001176  37.2828 322.8120 12.62260000580094
GLOBALSTAR M095         
1 39077U 13005F   25248.87829249 -.00000093  00000+0  58296-4 0  9991
2 39077  52.0080  66.6139 0001231  66.8215 293.2782 12.62259851579969
GLOBALSTAR M087         
1 52888U 22064A   25248.89253761 -.00000112  00000+0 -45241-4 0  9992
2 52888  51.9978 207.9795 0000593  54.0646 306.0276 12.62301193155231
